{
  "type": "FeatureCollection",
  "features": [
    {
      "type": "Feature",
      "properties": {
        "norad_id": 66455,
        "name": "ATLAS 5 CENTAUR R/B",
        "group": "last-30-days",
        "lat": 3.220460423751193,
        "lon": -36.34074817084597,
        "alt_km": 22737.55300204769,
        "timestamp": "2025-12-06T16:45:41.514978+00:00",
        "meta_object_name": "ATLAS 5 CENTAUR R/B",
        "meta_object_id": "2025-261B",
        "meta_epoch": "2025-12-06T05:50:34.532736",
        "meta_mean_motion": 2.28259369,
        "meta_eccentricity": 0.23295733,
        "meta_inclination": 6.1541,
        "meta_ra_of_asc_node": 292.2659,
        "meta_arg_of_pericenter": 185.1786,
        "meta_mean_anomaly": 206.5245,
        "meta_ephemeris_type": 0,
        "meta_classification_type": "U",
        "meta_norad_cat_id": 66455,
        "meta_element_set_no": 999,
        "meta_rev_at_epoch": 50,
        "meta_bstar": 0,
        "meta_mean_motion_dot": -6.9e-07,
        "meta_mean_motion_ddot": 0,
        "tle_line1": "1 66455U 25261B   25340.24345524 -.00000069  00000+0  00000+0 0  9999",
        "tle_line2": "2 66455   6.1541 292.2659 2329573 185.1786 206.5245  2.28259369   502"
      },
      "geometry": {
        "type": "Point",
        "coordinates": [
          -36.34074817084597,
          3.220460423751193
        ]
      }
    },
    {
      "type": "Feature",
      "properties": {
        "norad_id": 66456,
        "name": "STARLINK-35643",
        "group": "last-30-days",
        "lat": 37.13809158947238,
        "lon": 160.82853289509927,
        "alt_km": 417.88077488784984,
        "timestamp": "2025-12-06T16:45:41.514989+00:00",
        "meta_object_name": "STARLINK-35643",
        "meta_object_id": "2025-262A",
        "meta_epoch": "2025-12-06T08:00:01.999872",
        "meta_mean_motion": 15.4953322,
        "meta_eccentricity": 0.00010147,
        "meta_inclination": 43.0006,
        "meta_ra_of_asc_node": 108.5966,
        "meta_arg_of_pericenter": 259.1332,
        "meta_mean_anomaly": 285.5492,
        "meta_ephemeris_type": 0,
        "meta_classification_type": "U",
        "meta_norad_cat_id": 66456,
        "meta_element_set_no": 999,
        "meta_rev_at_epoch": 460,
        "meta_bstar": -0.040629834,
        "meta_mean_motion_dot": -0.02045256,
        "meta_mean_motion_ddot": 0,
        "tle_line1": "1 66456U 25262A   25340.33335648 -.02045256  00000+0 -40630-1 0  9992",
        "tle_line2": "2 66456  43.0006 108.5966 0001014 259.1332 285.5492 15.49533220  4607"
      },
      "geometry": {
        "type": "Point",
        "coordinates": [
          160.82853289509927,
          37.13809158947238
        ]
      }
    },
    {
      "type": "Feature",
      "properties": {
        "norad_id": 66457,
        "name": "STARLINK-35466",
        "group": "last-30-days",
        "lat": 39.539598282475694,
        "lon": 168.8064750794237,
        "alt_km": 410.0456068967969,
        "timestamp": "2025-12-06T16:45:41.514999+00:00",
        "meta_object_name": "STARLINK-35466",
        "meta_object_id": "2025-262B",
        "meta_epoch": "2025-12-06T08:00:01.999872",
        "meta_mean_motion": 15.50694371,
        "meta_eccentricity": 0.00013719,
        "meta_inclination": 43.0006,
        "meta_ra_of_asc_node": 108.5855,
        "meta_arg_of_pericenter": 260.637,
        "meta_mean_anomaly": 288.2972,
        "meta_ephemeris_type": 0,
        "meta_classification_type": "U",
        "meta_norad_cat_id": 66457,
        "meta_element_set_no": 999,
        "meta_rev_at_epoch": 460,
        "meta_bstar": -0.0055718689,
        "meta_mean_motion_dot": -0.00315681,
        "meta_mean_motion_ddot": 0,
        "tle_line1": "1 66457U 25262B   25340.33335648 -.00315681  00000+0 -55719-2 0  9998",
        "tle_line2": "2 66457  43.0006 108.5855 0001371 260.6370 288.2972 15.50694371  4600"
      },
      "geometry": {
        "type": "Point",
        "coordinates": [
          168.8064750794237,
          39.539598282475694
        ]
      }
    },
    {
      "type": "Feature",
      "properties": {
        "norad_id": 66458,
        "name": "STARLINK-35684",
        "group": "last-30-days",
        "lat": 38.66036198926454,
        "lon": 165.60601207757728,
        "alt_km": 413.7934371287629,
        "timestamp": "2025-12-06T16:45:41.515011+00:00",
        "meta_object_name": "STARLINK-35684",
        "meta_object_id": "2025-262C",
        "meta_epoch": "2025-12-06T08:00:01.999872",
        "meta_mean_motion": 15.50863091,
        "meta_eccentricity": 9.899e-05,
        "meta_inclination": 43.0005,
        "meta_ra_of_asc_node": 108.5902,
        "meta_arg_of_pericenter": 239.5814,
        "meta_mean_anomaly": 307.4314,
        "meta_ephemeris_type": 0,
        "meta_classification_type": "U",
        "meta_norad_cat_id": 66458,
        "meta_element_set_no": 999,
        "meta_rev_at_epoch": 460,
        "meta_bstar": -0.038953966,
        "meta_mean_motion_dot": -0.02055377,
        "meta_mean_motion_ddot": 0,
        "tle_line1": "1 66458U 25262C   25340.33335648 -.02055377  00000+0 -38954-1 0  9995",
        "tle_line2": "2 66458  43.0005 108.5902 0000989 239.5814 307.4314 15.50863091  4606"
      },
      "geometry": {
        "type": "Point",
        "coordinates": [
          165.60601207757728,
          38.66036198926454
        ]
      }
    },
    {
      "type": "Feature",
      "properties": {
        "norad_id": 66459,
        "name": "STARLINK-35449",
        "group": "last-30-days",
        "lat": 40.12947533154087,
        "lon": 171.21401678661286,
        "alt_km": 409.6282642371334,
        "timestamp": "2025-12-06T16:45:41.515022+00:00",
        "meta_object_name": "STARLINK-35449",
        "meta_object_id": "2025-262D",
        "meta_epoch": "2025-12-06T08:00:01.999872",
        "meta_mean_motion": 15.50577774,
        "meta_eccentricity": 0.00015448,
        "meta_inclination": 43.0003,
        "meta_ra_of_asc_node": 108.5804,
        "meta_arg_of_pericenter": 267.2722,
        "meta_mean_anomaly": 283.5959,
        "meta_ephemeris_type": 0,
        "meta_classification_type": "U",
        "meta_norad_cat_id": 66459,
        "meta_element_set_no": 999,
        "meta_rev_at_epoch": 460,
        "meta_bstar": 9.523013e-05,
        "meta_mean_motion_dot": 5.249e-05,
        "meta_mean_motion_ddot": 0,
        "tle_line1": "1 66459U 25262D   25340.33335648  .00005249  00000+0  95230-4 0  9998",
        "tle_line2": "2 66459  43.0003 108.5804 0001544 267.2722 283.5959 15.50577774  4609"
      },
      "geometry": {
        "type": "Point",
        "coordinates": [
          171.21401678661286,
          40.12947533154087
        ]
      }
    },
    {
      "type": "Feature",
      "properties": {
        "norad_id": 66460,
        "name": "STARLINK-35424",
        "group": "last-30-days",
        "lat": 40.66508947758198,
        "lon": 173.64464715860714,
        "alt_km": 409.5178001359427,
        "timestamp": "2025-12-06T16:45:41.515032+00:00",
        "meta_object_name": "STARLINK-35424",
        "meta_object_id": "2025-262E",
        "meta_epoch": "2025-12-06T08:00:01.999872",
        "meta_mean_motion": 15.50668499,
        "meta_eccentricity": 0.00011956,
        "meta_inclination": 43.0005,
        "meta_ra_of_asc_node": 108.5765,
        "meta_arg_of_pericenter": 270.9699,
        "meta_mean_anomaly": 281.8063,
        "meta_ephemeris_type": 0,
        "meta_classification_type": "U",
        "meta_norad_cat_id": 66460,
        "meta_element_set_no": 999,
        "meta_rev_at_epoch": 460,
        "meta_bstar": -0.0034415194,
        "meta_mean_motion_dot": -0.00197848,
        "meta_mean_motion_ddot": 0,
        "tle_line1": "1 66460U 25262E   25340.33335648 -.00197848  00000+0 -34415-2 0  9995",
        "tle_line2": "2 66460  43.0005 108.5765 0001195 270.9699 281.8063 15.50668499  4607"
      },
      "geometry": {
        "type": "Point",
        "coordinates": [
          173.64464715860714,
          40.66508947758198
        ]
      }
    },
    {
      "type": "Feature",
      "properties": {
        "norad_id": 66461,
        "name": "STARLINK-35132",
        "group": "last-30-days",
        "lat": 41.1483699050643,
        "lon": 176.11074453752695,
        "alt_km": 409.59922941522746,
        "timestamp": "2025-12-06T16:45:41.515042+00:00",
        "meta_object_name": "STARLINK-35132",
        "meta_object_id": "2025-262F",
        "meta_epoch": "2025-12-06T08:00:01.999872",
        "meta_mean_motion": 15.50706915,
        "meta_eccentricity": 0.00012806,
        "meta_inclination": 43.0005,
        "meta_ra_of_asc_node": 108.5717,
        "meta_arg_of_pericenter": 261.7526,
        "meta_mean_anomaly": 292.9376,
        "meta_ephemeris_type": 0,
        "meta_classification_type": "U",
        "meta_norad_cat_id": 66461,
        "meta_element_set_no": 999,
        "meta_rev_at_epoch": 460,
        "meta_bstar": -0.0047098811,
        "meta_mean_motion_dot": -0.00268602,
        "meta_mean_motion_ddot": 0,
        "tle_line1": "1 66461U 25262F   25340.33335648 -.00268602  00000+0 -47099-2 0  9995",
        "tle_line2": "2 66461  43.0005 108.5717 0001280 261.7526 292.9376 15.50706915  4603"
      },
      "geometry": {
        "type": "Point",
        "coordinates": [
          176.11074453752695,
          41.1483699050643
        ]
      }
    }
  ]
}